[{"OBJECT_NAME":"STARLINK-34389","OBJECT_ID":"2025-126H","EPOCH":"2026-03-09T07:09:09.980352","MEAN_MOTION":14.98333821,"ECCENTRICITY":0.00026918,"INCLINATION":70.0032,"RA_OF_ASC_NODE":35.4241,"ARG_OF_PERICENTER":269.3836,"MEAN_ANOMALY":90.7015,"EPHEMERIS_TYPE":0,"CLASSIFICATION_TYPE":"U","NORAD_CAT_ID":64351,"ELEMENT_SET_NO":999,"REV_AT_EPOCH":4062,"BSTAR":0.00041670904,"MEAN_MOTION_DOT":4.883e-5,"MEAN_MOTION_DDOT":0},{"OBJECT_NAME":"TURKSAT-3USAT","OBJECT_ID":"2013-018C","EPOCH":"2026-03-09T19:52:59.932416","MEAN_MOTION":14.95734186,"ECCENTRICITY":0.00131837,"INCLINATION":97.7913,"RA_OF_ASC_NODE":160.1317,"ARG_OF_PERICENTER":74.0986,"MEAN_ANOMALY":286.1687,"EPHEMERIS_TYPE":0,"CLASSIFICATION_TYPE":"U","NORAD_CAT_ID":39152,"ELEMENT_SET_NO":999,"REV_AT_EPOCH":69623,"BSTAR":0.00039789997,"MEAN_MOTION_DOT":4.382e-5,"MEAN_MOTION_DDOT":0}]
